NORAD_CAT_ID,OBJECT_NAME,OBJECT_TYPE,EPOCH,MEAN_MOTION,ECCENTRICITY,INCLINATION,RA_OF_ASC_NODE,ARG_OF_PERICENTER,MEAN_ANOMALY,BSTAR,MEAN_MOTION_DOT,MEAN_MOTION_DDOT,TLE_LINE0,TLE_LINE1,TLE_LINE2,SEMIMAJOR_AXIS,PERIOD,APOGEE,PERIGEE,DECAYED
53536.0,STARLINK-4053,PAYLOAD,2023-01-09 06:11:34,15.07204109,0.0002196,53.2149,210.7706,48.9744,311.1437,0.00014821,1.973e-05,0.0,0 STARLINK-4053,1 53536U 22101K   23009.25803403  .00001973  00000-0  14821-3 0  9996,2 53536  53.2149 210.7706 0002196  48.9744 311.1437 15.07204109 21872,6922.885,95.541,546.27,543.23,0.0
53536.0,STARLINK-4053,PAYLOAD,2023-01-09 22:06:27,15.0720358,0.0002227,53.2166,207.8018,50.425,309.6938,0.00010487,1.313e-05,0.0,0 STARLINK-4053,1 53536U 22101K   23009.92115632  .00001313  00000-0  10487-3 0  9992,2 53536  53.2166 207.8018 0002227  50.4250 309.6938 15.07203580 21970,6922.887,95.541,546.294,543.21,0.0
53536.0,STARLINK-4053,PAYLOAD,2023-01-10 06:03:55,15.07199867,0.0002231,53.2162,206.3171,51.0661,309.0529,4.7168e-05,4.34e-06,0.0,0 STARLINK-4053,1 53536U 22101K   23010.25272051  .00000434  00000-0  47168-4 0  9999,2 53536  53.2162 206.3171 0002231  51.0661 309.0529 15.07199867 22027,6922.898,95.541,546.308,543.219,0.0
53536.0,STARLINK-4053,PAYLOAD,2023-01-10 15:36:50,15.07202298,0.0001324,53.219,204.5364,31.8704,328.2368,-3.204e-06,-3.32e-06,0.0,0 STARLINK-4053,1 53536U 22101K   23010.65058743 -.00000332  00000-0 -32040-5 0  9996,2 53536  53.2190 204.5364 0001324  31.8704 328.2368 15.07202298 22081,6922.891,95.541,545.672,543.839,0.0
53536.0,STARLINK-4053,PAYLOAD,2023-01-11 05:56:14,15.07212729,0.0001681,53.2188,201.862,33.9438,326.1661,9.8689e-05,1.219e-05,0.0,0 STARLINK-4053,1 53536U 22101K   23011.24738510  .00001219  00000-0  98689-4 0  9992,2 53536  53.2188 201.8620 0001681  33.9438 326.1661 15.07212729 22179,6922.859,95.541,545.888,543.56,0.0
53536.0,STARLINK-4053,PAYLOAD,2023-01-11 18:40:07,15.072410199999998,0.0002284,53.2154,199.4866,46.944,313.1742,-0.00031358,-5.059e-05,0.0,0 STARLINK-4053,1 53536U 22101K   23011.77786933 -.00005059  00000-0 -31358-3 0  9999,2 53536  53.2154 199.4866 0002284  46.9440 313.1742 15.07241020 22254,6922.772,95.539,546.2180000000002,543.056,0.0
53536.0,STARLINK-4053,PAYLOAD,2023-01-12 18:32:28,15.07212589,0.0002165,53.215,195.0325,50.9305,309.1879,0.00010274,1.281e-05,0.0,0 STARLINK-4053,1 53536U 22101K   23012.77255485  .00001281  00000-0  10274-3 0  9998,2 53536  53.2150 195.0325 0002165  50.9305 309.1879 15.07212589 22406,6922.859,95.541,546.2230000000002,543.225,0.0
53536.0,STARLINK-4053,PAYLOAD,2023-01-12 21:43:27,15.07214908,0.0002206,53.2147,194.4395,49.0071,311.1111,8.6164e-05,1.028e-05,0.0,0 STARLINK-4053,1 53536U 22101K   23012.90517759  .00001028  00000-0  86164-4 0  9999,2 53536  53.2147 194.4395 0002206  49.0071 311.1111 15.07214908 22428,6922.852,95.54,546.244,543.19,0.0
53536.0,STARLINK-4053,PAYLOAD,2023-01-13 12:02:52,15.07203058,0.0002508999999999,53.2149,191.7662,57.5871,302.5363,-5.9379e-05,-1.188e-05,0.0,0 STARLINK-4053,1 53536U 22101K   23013.50199712 -.00001188  00000-0 -59379-4 0  9998,2 53536  53.2149 191.7662 0002509  57.5871 302.5363 15.07203058 22512,6922.888000000001,95.541,546.49,543.016,0.0
53536.0,STARLINK-4053,PAYLOAD,2023-01-13 18:24:50,15.07198445,0.0002133999999999,53.215,190.5784,52.2059,307.9126,-9.5915e-05,-1.743e-05,0.0,0 STARLINK-4053,1 53536U 22101K   23013.76724841 -.00001743  00000-0 -95915-4 0  9996,2 53536  53.2150 190.5784 0002134  52.2059 307.9126 15.07198445 22553,6922.903,95.541,546.245,543.29,0.0
53536.0,STARLINK-4053,PAYLOAD,2023-01-14 18:17:10,15.07203424,0.000214,53.2149,186.1244,53.4611,306.6577,2.8795e-05,1.55e-06,0.0,0 STARLINK-4053,1 53536U 22101K   23014.76192428  .00000155  00000-0  28795-4 0  9993,2 53536  53.2149 186.1244 0002140  53.4611 306.6577 15.07203424 22704,6922.887,95.541,546.234,543.271,0.0
53536.0,STARLINK-4053,PAYLOAD,2023-01-15 11:47:34,15.07190927,0.000213,53.2149,182.858,56.3403,303.7791,0.0001181,1.514e-05,0.0,0 STARLINK-4053,1 53536U 22101K   23015.49136652  .00001514  00000-0  11810-3 0  9990,2 53536  53.2149 182.8580 0002130  56.3403 303.7791 15.07190927 22811,6922.926,95.542,546.265,543.316,0.0
53536.0,STARLINK-4053,PAYLOAD,2023-01-15 18:09:31,15.07203444,0.0001968,53.2168,181.672,48.2185,311.8975,8.1258e-05,9.53e-06,0.0,0 STARLINK-4053,1 53536U 22101K   23015.75660900  .00000953  00000-0  81258-4 0  9997,2 53536  53.2168 181.6720 0001968  48.2185 311.8975 15.07203444 22857,6922.887,95.541,546.115,543.39,0.0
53536.0,STARLINK-4053,PAYLOAD,2023-01-16 11:39:54,15.07202053,0.0002099,53.2158,178.4053,59.8697,300.2502,4.7443e-05,4.39e-06,0.0,0 STARLINK-4053,1 53536U 22101K   23016.48604370  .00000439  00000-0  47443-4 0  9994,2 53536  53.2158 178.4053 0002099  59.8697 300.2502 15.07202053 22966,6922.891,95.541,546.21,543.303,0.0
53536.0,STARLINK-4053,PAYLOAD,2023-01-16 19:37:20,15.07209814,0.0002086999999999,53.2156,176.9204,62.269,297.8513,0.00016239,2.189e-05,0.0,0 STARLINK-4053,1 53536U 22101K   23016.81759930  .00002189  00000-0  16239-3 0  9996,2 53536  53.2156 176.9204 0002087  62.2690 297.8513 15.07209814 23015,6922.868,95.541,546.178,543.288,0.0
53536.0,STARLINK-4053,PAYLOAD,2023-01-16 21:12:49,15.07212014,0.0002069,53.2147,176.6227,61.7578,298.3622,0.0001978,2.729e-05,0.0,0 STARLINK-4053,1 53536U 22101K   23016.88391008  .00002729  00000-0  19780-3 0  9995,2 53536  53.2147 176.6227 0002069  61.7578 298.3622 15.07212014 23020,6922.861,95.541,546.158,543.294,0.0
53536.0,STARLINK-4053,PAYLOAD,2023-01-17 03:34:47,15.07201968,0.00022,53.2148,175.4341,63.8503,296.2715,9.314e-05,1.134e-05,0.0,0 STARLINK-4053,1 53536U 22101K   23017.14916388  .00001134  00000-0  93140-4 0  9991,2 53536  53.2148 175.4341 0002200  63.8503 296.2715 15.07201968 23063,6922.892,95.541,546.28,543.234,0.0
53536.0,STARLINK-4053,PAYLOAD,2023-01-17 11:32:14,15.07197898,0.0002066999999999,53.2135,173.9481,63.4295,296.6908,9.0608e-05,1.096e-05,0.0,0 STARLINK-4053,1 53536U 22101K   23017.48072589  .00001096  00000-0  90608-4 0  9997,2 53536  53.2135 173.9481 0002067  63.4295 296.6908 15.07197898 23112,6922.904,95.542,546.2,543.3380000000001,0.0
53536.0,STARLINK-4053,PAYLOAD,2023-01-17 16:18:42,15.07202848,0.0002014,53.2149,173.0599,64.9328,295.1873,7.9269e-05,9.23e-06,0.0,0 STARLINK-4053,1 53536U 22101K   23017.67965979  .00000923  00000-0  79269-4 0  9990,2 53536  53.2149 173.0599 0002014  64.9328 295.1873 15.07202848 23143,6922.889,95.541,546.148,543.36,0.0
53536.0,STARLINK-4053,PAYLOAD,2023-01-18 09:49:05,15.07203956,0.0002018,53.2149,169.7933,67.471,292.6495,0.00011653,1.491e-05,0.0,0 STARLINK-4053,1 53536U 22101K   23018.40909204  .00001491  00000-0  11653-3 0  9994,2 53536  53.2149 169.7933 0002018  67.4710 292.6495 15.07203956 23259,6922.886,95.541,546.148,543.354,0.0
53536.0,STARLINK-4053,PAYLOAD,2023-01-18 13:00:04,15.07205342,0.000202,53.2141,169.1995,66.2227,293.8976,0.00012476,1.616e-05,0.0,0 STARLINK-4053,1 53536U 22101K   23018.54171541  .00001616  00000-0  12476-3 0  9997,2 53536  53.2141 169.1995 0002020  66.2227 293.8976 15.07205342 23276,6922.880999999999,95.541,546.145,543.3480000000001,0.0
53536.0,STARLINK-4053,PAYLOAD,2023-01-18 16:11:02,15.07209793,0.0001815,53.2144,168.6059,66.986,293.1322,0.00020337,2.814e-05,0.0,0 STARLINK-4053,1 53536U 22101K   23018.67433678  .00002814  00000-0  20337-3 0  9999,2 53536  53.2144 168.6059 0001815  66.9860 293.1322 15.07209793 23299,6922.868,95.541,545.989,543.476,0.0
53536.0,STARLINK-4053,PAYLOAD,2023-01-19 09:41:26,15.07197499,0.0001966,53.2142,165.3395,73.7317,286.3891,4.948600000000001e-05,4.7e-06,0.0,0 STARLINK-4053,1 53536U 22101K   23019.40377479  .00000470  00000-0  49486-4 0  9990,2 53536  53.2142 165.3395 0001966  73.7317 286.3891 15.07197499 23401,6922.905,95.542,546.131,543.409,0.0
53536.0,STARLINK-4053,PAYLOAD,2023-01-19 11:16:55,15.07196049,0.000195,53.2148,165.043,72.4356,287.6848,-8.5873e-06,-4.14e-06,0.0,0 STARLINK-4053,1 53536U 22101K   23019.47008771 -.00000414  00000-0 -85873-5 0  9994,2 53536  53.2148 165.0430 0001950  72.4356 287.6848 15.07196049 23413,6922.91,95.542,546.125,543.425,0.0
53536.0,STARLINK-4053,PAYLOAD,2023-01-20 09:33:45,15.07208896,0.0001821,53.2159,160.885,77.3698,282.7497,0.00012974,1.692e-05,0.0,0 STARLINK-4053,1 53536U 22101K   23020.39844695  .00001692  00000-0  12974-3 0  9997,2 53536  53.2159 160.8850 0001821  77.3698 282.7497 15.07208896 23559,6922.871,95.541,545.996,543.475,0.0
53536.0,STARLINK-4053,PAYLOAD,2023-01-20 15:55:42,15.07216652,0.0001764999999999,53.2153,159.6975,76.6653,283.4536,0.00028949,4.127e-05,0.0,0 STARLINK-4053,1 53536U 22101K   23020.66369161  .00004127  00000-0  28949-3 0  9992,2 53536  53.2153 159.6975 0001765  76.6653 283.4536 15.07216652 23592,6922.847,95.54,545.934,543.49,0.0
53536.0,STARLINK-4053,PAYLOAD,2023-01-21 15:48:03,15.07212921,0.000153,53.2155,155.2435,79.5357,280.5807,0.00029793,4.255e-05,0.0,0 STARLINK-4053,1 53536U 22101K   23021.65837390  .00004255  00000-0  29793-3 0  9996,2 53536  53.2155 155.2435 0001530  79.5357 280.5807 15.07212921 23741,6922.858,95.541,545.7819999999999,543.664,0.0
53536.0,STARLINK-4053,PAYLOAD,2023-01-22 09:18:26,15.07206021,0.000158,53.2159,151.97799999999998,83.0662,277.051,2.3297e-05,7.1e-07,0.0,0 STARLINK-4053,1 53536U 22101K   23022.38780287  .00000071  00000-0  23297-4 0  9995,2 53536  53.2159 151.9780 0001580  83.0662 277.0510 15.07206021 23853,6922.879,95.541,545.8380000000001,543.651,0.0
53536.0,STARLINK-4053,PAYLOAD,2023-01-23 17:08:15,15.07167233,0.0001398,53.2169,146.0403,81.2115,278.9035,0.001601,0.00024145,0.0,0 STARLINK-4053,1 53536U 22101K   23023.71406610  .00024145  00000-0  16010-2 0  9999,2 53536  53.2169 146.0403 0001398  81.2115 278.9035 15.07167233 24057,6922.9980000000005,95.543,545.831,543.895,0.0
